[{"OBJECT_NAME":"QIANFAN-91","OBJECT_ID":"2025-233A","EPOCH":"2026-03-09T21:20:21.994944","MEAN_MOTION":13.51004751,"ECCENTRICITY":0.00020093,"INCLINATION":88.9937,"RA_OF_ASC_NODE":53.2267,"ARG_OF_PERICENTER":92.0991,"MEAN_ANOMALY":268.0391,"EPHEMERIS_TYPE":0,"CLASSIFICATION_TYPE":"U","NORAD_CAT_ID":66033,"ELEMENT_SET_NO":999,"REV_AT_EPOCH":1977,"BSTAR":4.1026341e-5,"MEAN_MOTION_DOT":3.9e-7,"MEAN_MOTION_DDOT":0},{"OBJECT_NAME":"THORAD AGENA D DEB","OBJECT_ID":"1970-025BT","EPOCH":"2026-03-09T07:27:07.784064","MEAN_MOTION":13.58930113,"ECCENTRICITY":0.00448187,"INCLINATION":100.0304,"RA_OF_ASC_NODE":197.5027,"ARG_OF_PERICENTER":129.6351,"MEAN_ANOMALY":260.0022,"EPHEMERIS_TYPE":0,"CLASSIFICATION_TYPE":"U","NORAD_CAT_ID":4705,"ELEMENT_SET_NO":999,"REV_AT_EPOCH":75674,"BSTAR":0.00057188957,"MEAN_MOTION_DOT":3.75e-6,"MEAN_MOTION_DDOT":0}]
